{
  "type": "FeatureCollection",
  "features": [
    {
      "type": "Feature",
      "properties": {
        "norad_id": 30940,
        "name": "FENGYUN 1C DEB",
        "group": "fengyun-1c-debris",
        "lat": 75.33264886436375,
        "lon": -43.33712901767274,
        "alt_km": 857.497338382721,
        "timestamp": "2025-12-17T23:38:07.133734+00:00",
        "meta_object_name": "FENGYUN 1C DEB",
        "meta_object_id": "1999-025BAE",
        "meta_epoch": "2025-12-16T23:39:40.142592",
        "meta_mean_motion": 14.08311851,
        "meta_eccentricity": 0.00408669,
        "meta_inclination": 98.6231,
        "meta_ra_of_asc_node": 351.1417,
        "meta_arg_of_pericenter": 351.6299,
        "meta_mean_anomaly": 64.3799,
        "meta_ephemeris_type": 0,
        "meta_classification_type": "U",
        "meta_norad_cat_id": 30940,
        "meta_element_set_no": 999,
        "meta_rev_at_epoch": 96192,
        "meta_bstar": 0.00036834682,
        "meta_mean_motion_dot": 5.93e-06,
        "meta_mean_motion_ddot": 0,
        "tle_line1": "1 30940U 99025BAE 25350.98588128  .00000593  00000+0  36835-3 0  9999",
        "tle_line2": "2 30940  98.6231 351.1417 0040866 351.6299  64.3799 14.08311851961925"
      },
      "geometry": {
        "type": "Point",
        "coordinates": [
          -43.33712901767274,
          75.33264886436375
        ]
      }
    },
    {
      "type": "Feature",
      "properties": {
        "norad_id": 30941,
        "name": "FENGYUN 1C DEB",
        "group": "fengyun-1c-debris",
        "lat": -62.48841064042004,
        "lon": 11.93585224753366,
        "alt_km": 782.3502955565355,
        "timestamp": "2025-12-17T23:38:07.133744+00:00",
        "meta_object_name": "FENGYUN 1C DEB",
        "meta_object_id": "1999-025BAF",
        "meta_epoch": "2025-12-16T12:56:12.185952",
        "meta_mean_motion": 14.3107633,
        "meta_eccentricity": 0.00338881,
        "meta_inclination": 98.5491,
        "meta_ra_of_asc_node": 207.3009,
        "meta_arg_of_pericenter": 306.0217,
        "meta_mean_anomaly": 53.7827,
        "meta_ephemeris_type": 0,
        "meta_classification_type": "U",
        "meta_norad_cat_id": 30941,
        "meta_element_set_no": 999,
        "meta_rev_at_epoch": 96680,
        "meta_bstar": 0.0015073609,
        "meta_mean_motion_dot": 3.955e-05,
        "meta_mean_motion_ddot": 0,
        "tle_line1": "1 30941U 99025BAF 25350.53902993  .00003955  00000+0  15074-2 0  9997",
        "tle_line2": "2 30941  98.5491 207.3009 0033888 306.0217  53.7827 14.31076330966804"
      },
      "geometry": {
        "type": "Point",
        "coordinates": [
          11.93585224753366,
          -62.48841064042004
        ]
      }
    },
    {
      "type": "Feature",
      "properties": {
        "norad_id": 30942,
        "name": "FENGYUN 1C DEB",
        "group": "fengyun-1c-debris",
        "lat": -54.45540283588781,
        "lon": 2.4289201970690195,
        "alt_km": 932.72823184157,
        "timestamp": "2025-12-17T23:38:07.133754+00:00",
        "meta_object_name": "FENGYUN 1C DEB",
        "meta_object_id": "1999-025BAG",
        "meta_epoch": "2025-12-16T18:08:59.972352",
        "meta_mean_motion": 14.1484202,
        "meta_eccentricity": 0.01380243,
        "meta_inclination": 98.6797,
        "meta_ra_of_asc_node": 348.8885,
        "meta_arg_of_pericenter": 94.8865,
        "meta_mean_anomaly": 76.6147,
        "meta_ephemeris_type": 0,
        "meta_classification_type": "U",
        "meta_norad_cat_id": 30942,
        "meta_element_set_no": 999,
        "meta_rev_at_epoch": 96701,
        "meta_bstar": 0.0002068947,
        "meta_mean_motion_dot": 3.96e-06,
        "meta_mean_motion_ddot": 0,
        "tle_line1": "1 30942U 99025BAG 25350.75624968  .00000396  00000+0  20689-3 0  9990",
        "tle_line2": "2 30942  98.6797 348.8885 0138024  94.8865  76.6147 14.14842020967018"
      },
      "geometry": {
        "type": "Point",
        "coordinates": [
          2.4289201970690195,
          -54.45540283588781
        ]
      }
    },
    {
      "type": "Feature",
      "properties": {
        "norad_id": 30943,
        "name": "FENGYUN 1C DEB",
        "group": "fengyun-1c-debris",
        "lat": 81.13669840912787,
        "lon": -77.49188016594653,
        "alt_km": 841.6256903537078,
        "timestamp": "2025-12-17T23:38:07.133764+00:00",
        "meta_object_name": "FENGYUN 1C DEB",
        "meta_object_id": "1999-025BAH",
        "meta_epoch": "2025-12-16T06:11:00.155616",
        "meta_mean_motion": 14.04492174,
        "meta_eccentricity": 0.00507402,
        "meta_inclination": 98.7971,
        "meta_ra_of_asc_node": 4.0685,
        "meta_arg_of_pericenter": 56.0453,
        "meta_mean_anomaly": 304.5522,
        "meta_ephemeris_type": 0,
        "meta_classification_type": "U",
        "meta_norad_cat_id": 30943,
        "meta_element_set_no": 999,
        "meta_rev_at_epoch": 95791,
        "meta_bstar": 0.00044951909,
        "meta_mean_motion_dot": 6.83e-06,
        "meta_mean_motion_ddot": 0,
        "tle_line1": "1 30943U 99025BAH 25350.25764069  .00000683  00000+0  44952-3 0  9991",
        "tle_line2": "2 30943  98.7971   4.0685 0050740  56.0453 304.5522 14.04492174957912"
      },
      "geometry": {
        "type": "Point",
        "coordinates": [
          -77.49188016594653,
          81.13669840912787
        ]
      }
    },
    {
      "type": "Feature",
      "properties": {
        "norad_id": 30944,
        "name": "FENGYUN 1C DEB",
        "group": "fengyun-1c-debris",
        "lat": 79.86050028671816,
        "lon": -71.42832040992108,
        "alt_km": 605.8934882283393,
        "timestamp": "2025-12-17T23:38:07.133774+00:00",
        "meta_object_name": "FENGYUN 1C DEB",
        "meta_object_id": "1999-025BAJ",
        "meta_epoch": "2025-12-16T09:27:37.279008",
        "meta_mean_motion": 14.52449128,
        "meta_eccentricity": 0.0149266,
        "meta_inclination": 98.8504,
        "meta_ra_of_asc_node": 46.2915,
        "meta_arg_of_pericenter": 89.6704,
        "meta_mean_anomaly": 332.7091,
        "meta_ephemeris_type": 0,
        "meta_classification_type": "U",
        "meta_norad_cat_id": 30944,
        "meta_element_set_no": 999,
        "meta_rev_at_epoch": 99129,
        "meta_bstar": 0.00013602966,
        "meta_mean_motion_dot": 5.85e-06,
        "meta_mean_motion_ddot": 0,
        "tle_line1": "1 30944U 99025BAJ 25350.39418147  .00000585  00000+0  13603-3 0  9990",
        "tle_line2": "2 30944  98.8504  46.2915 0149266  89.6704 332.7091 14.52449128991290"
      },
      "geometry": {
        "type": "Point",
        "coordinates": [
          -71.42832040992108,
          79.86050028671816
        ]
      }
    },
    {
      "type": "Feature",
      "properties": {
        "norad_id": 30945,
        "name": "FENGYUN 1C DEB",
        "group": "fengyun-1c-debris",
        "lat": 40.969756730323056,
        "lon": -170.68001075600242,
        "alt_km": 798.2807481676946,
        "timestamp": "2025-12-17T23:38:07.133784+00:00",
        "meta_object_name": "FENGYUN 1C DEB",
        "meta_object_id": "1999-025BAK",
        "meta_epoch": "2025-12-16T06:45:55.175904",
        "meta_mean_motion": 14.29744942,
        "meta_eccentricity": 0.00305457,
        "meta_inclination": 99.3902,
        "meta_ra_of_asc_node": 359.2236,
        "meta_arg_of_pericenter": 28.5823,
        "meta_mean_anomaly": 349.1653,
        "meta_ephemeris_type": 0,
        "meta_classification_type": "U",
        "meta_norad_cat_id": 30945,
        "meta_element_set_no": 999,
        "meta_rev_at_epoch": 96488,
        "meta_bstar": 0.0012467125,
        "meta_mean_motion_dot": 3.167e-05,
        "meta_mean_motion_ddot": 0,
        "tle_line1": "1 30945U 99025BAK 25350.28188861  .00003167  00000+0  12467-2 0  9991",
        "tle_line2": "2 30945  99.3902 359.2236 0030545  28.5823 349.1653 14.29744942964882"
      },
      "geometry": {
        "type": "Point",
        "coordinates": [
          -170.68001075600242,
          40.969756730323056
        ]
      }
    },
    {
      "type": "Feature",
      "properties": {
        "norad_id": 30946,
        "name": "FENGYUN 1C DEB",
        "group": "fengyun-1c-debris",
        "lat": 75.8343617691375,
        "lon": 68.4382073752946,
        "alt_km": 732.9650753072383,
        "timestamp": "2025-12-17T23:38:07.133794+00:00",
        "meta_object_name": "FENGYUN 1C DEB",
        "meta_object_id": "1999-025BAL",
        "meta_epoch": "2025-12-17T06:49:18.317856",
        "meta_mean_motion": 14.4817512,
        "meta_eccentricity": 0.0089491,
        "meta_inclination": 99.0386,
        "meta_ra_of_asc_node": 106.7882,
        "meta_arg_of_pericenter": 179.4192,
        "meta_mean_anomaly": 210.4096,
        "meta_ephemeris_type": 0,
        "meta_classification_type": "U",
        "meta_norad_cat_id": 30946,
        "meta_element_set_no": 999,
        "meta_rev_at_epoch": 98417,
        "meta_bstar": 0.00061032712,
        "meta_mean_motion_dot": 2.339e-05,
        "meta_mean_motion_ddot": 0,
        "tle_line1": "1 30946U 99025BAL 25351.28423979  .00002339  00000+0  61033-3 0  9999",
        "tle_line2": "2 30946  99.0386 106.7882 0089491 179.4192 210.4096 14.48175120984179"
      },
      "geometry": {
        "type": "Point",
        "coordinates": [
          68.4382073752946,
          75.8343617691375
        ]
      }
    }
  ]
}